FLOCK 4BE-22            
1 60494U 24149AC  26068.95509216  .00023606  00000+0  63753-3 0  9995
2 60494  97.3770 151.8049 0002760 257.9236 102.1700 15.37753977 87038
TRANSPORTER-11 OBJECT AU
1 60510U 24149AU  26068.95482014  .00019158  00000+0  52665-3 0  9997
2 60510  97.3766 152.0877 0002389 284.8711  75.2269 15.37247418 87058
