[{"OBJECT_NAME":"FLOCK 4BE-22","OBJECT_ID":"2024-149AC","EPOCH":"2026-03-09T22:55:19.962624","MEAN_MOTION":15.37753977,"ECCENTRICITY":0.00027602,"INCLINATION":97.377,"RA_OF_ASC_NODE":151.8049,"ARG_OF_PERICENTER":257.9236,"MEAN_ANOMALY":102.17,"EPHEMERIS_TYPE":0,"CLASSIFICATION_TYPE":"U","NORAD_CAT_ID":60494,"ELEMENT_SET_NO":999,"REV_AT_EPOCH":8703,"BSTAR":0.00063753177,"MEAN_MOTION_DOT":0.00023606,"MEAN_MOTION_DDOT":0},{"OBJECT_NAME":"TRANSPORTER-11 OBJECT AU","OBJECT_ID":"2024-149AU","EPOCH":"2026-03-09T22:54:56.460096","MEAN_MOTION":15.37247418,"ECCENTRICITY":0.00023892,"INCLINATION":97.3766,"RA_OF_ASC_NODE":152.0877,"ARG_OF_PERICENTER":284.8711,"MEAN_ANOMALY":75.2269,"EPHEMERIS_TYPE":0,"CLASSIFICATION_TYPE":"U","NORAD_CAT_ID":60510,"ELEMENT_SET_NO":999,"REV_AT_EPOCH":8705,"BSTAR":0.00052665381,"MEAN_MOTION_DOT":0.00019158,"MEAN_MOTION_DDOT":0}]
